start=new Date('2022-07-03T00:00:00.000Z').valueOf();
sats=[{"EPHEMERIS_TYPE":"0","OBJECT_ID":"2021-009AA","TIME_SYSTEM":"UTC","SITE":"AFETR","PERIOD":"95.592","GP_ID":"207266925","COUNTRY_CODE":"US","OBJECT_TYPE":"PAYLOAD","PERIAPSIS":"546.239","TLE_LINE2":"2 47572  53.0551 294.6653 0001407  62.6383 297.4749 15.06399893 78045","MEAN_MOTION_DOT":"0.00000099","EPOCH":"2022-07-02T13:19:31.948032","INCLINATION":"53.0551","DECAY_DATE":null,"SEMIMAJOR_AXIS":"6925.349","CLASSIFICATION_TYPE":"U","REF_FRAME":"TEME","MEAN_MOTION_DDOT":"0.0000000000000","APOAPSIS":"548.188","MEAN_ELEMENT_THEORY":"SGP4","LAUNCH_DATE":"2021-02-04","MEAN_MOTION":"15.06399893","ARG_OF_PERICENTER":"62.6383","TLE_LINE1":"1 47572U 21009AA  22183.55523088  .00000099  00000-0  25548-4 0  9995","MEAN_ANOMALY":"297.4749","BSTAR":"0.00002554800000","ELEMENT_SET_NO":"999","ECCENTRICITY":"0.00014070","CENTER_NAME":"EARTH","RA_OF_ASC_NODE":"294.6653","FILE":"3506647","REV_AT_EPOCH":"7804","RCS_SIZE":"LARGE","OBJECT_NAME":"STARLINK-1971","NORAD_CAT_ID":"47572"},{"BSTAR":"0.00005735400000","FILE":"3506647","RA_OF_ASC_NODE":"294.4659","REV_AT_EPOCH":"7804","CENTER_NAME":"EARTH","ELEMENT_SET_NO":"999","ECCENTRICITY":"0.00014280","NORAD_CAT_ID":"47573","OBJECT_NAME":"STARLINK-1975","RCS_SIZE":"LARGE","MEAN_MOTION_DDOT":"0.0000000000000","APOAPSIS":"548.205","MEAN_MOTION":"15.06399180","LAUNCH_DATE":"2021-02-04","MEAN_ELEMENT_THEORY":"SGP4","MEAN_ANOMALY":"300.2355","TLE_LINE1":"1 47573U 21009AB  22183.59945664  .00000573  00000-0  57354-4 0  9995","ARG_OF_PERICENTER":"59.8775","OBJECT_TYPE":"PAYLOAD","MEAN_MOTION_DOT":"0.00000573","EPOCH":"2022-07-02T14:23:13.053696","TLE_LINE2":"2 47573  53.0538 294.4659 0001428  59.8775 300.2355 15.06399180 78046","PERIAPSIS":"546.227","DECAY_DATE":null,"INCLINATION":"53.0538","CLASSIFICATION_TYPE":"U","REF_FRAME":"TEME","SEMIMAJOR_AXIS":"6925.351","EPHEMERIS_TYPE":"0","OBJECT_ID":"2021-009AB","SITE":"AFETR","TIME_SYSTEM":"UTC","GP_ID":"207267675","COUNTRY_CODE":"US","PERIOD":"95.592"},{"GP_ID":"207272604","COUNTRY_CODE":"US","PERIOD":"95.591","SITE":"AFETR","TIME_SYSTEM":"UTC","OBJECT_ID":"2021-009AC","EPHEMERIS_TYPE":"0","SEMIMAJOR_AXIS":"6925.309","CLASSIFICATION_TYPE":"U","REF_FRAME":"TEME","DECAY_DATE":null,"INCLINATION":"53.0559","TLE_LINE2":"2 47574  53.0559 323.1945 0001564  60.8731 299.2414 15.06412772 78263","EPOCH":"2022-07-02T21:07:55.348608","MEAN_MOTION_DOT":"0.00001050","PERIAPSIS":"546.091","OBJECT_TYPE":"PAYLOAD","TLE_LINE1":"1 47574U 21009AC  22183.88050172  .00001050  00000-0  89365-4 0  9997","MEAN_ANOMALY":"299.2414","ARG_OF_PERICENTER":"60.8731","MEAN_MOTION":"15.06412772","MEAN_ELEMENT_THEORY":"SGP4","LAUNCH_DATE":"2021-02-04","MEAN_MOTION_DDOT":"0.0000000000000","APOAPSIS":"548.258","OBJECT_NAME":"STARLINK-1976","NORAD_CAT_ID":"47574","RCS_SIZE":"LARGE","RA_OF_ASC_NODE":"323.1945","FILE":"3506730","REV_AT_EPOCH":"7826","ELEMENT_SET_NO":"999","ECCENTRICITY":"0.00015640","CENTER_NAME":"EARTH","BSTAR":"0.00008936500000"},{"MEAN_ANOMALY":"290.8139","TLE_LINE1":"1 47575U 21009AD  22183.80310056  .00000432  00000-0  47922-4 0  9996","ARG_OF_PERICENTER":"69.3000","APOAPSIS":"548.170","MEAN_MOTION_DDOT":"0.0000000000000","MEAN_MOTION":"15.06403528","MEAN_ELEMENT_THEORY":"SGP4","LAUNCH_DATE":"2021-02-04","FILE":"3506730","RA_OF_ASC_NODE":"323.5487","REV_AT_EPOCH":"7825","CENTER_NAME":"EARTH","ELEMENT_SET_NO":"999","ECCENTRICITY":"0.00013970","NORAD_CAT_ID":"47575","OBJECT_NAME":"STARLINK-1977","RCS_SIZE":"LARGE","BSTAR":"0.00004792200000","COUNTRY_CODE":"US","GP_ID":"207272271","PERIOD":"95.592","OBJECT_ID":"2021-009AD","EPHEMERIS_TYPE":"0","SITE":"AFETR","TIME_SYSTEM":"UTC","DECAY_DATE":null,"INCLINATION":"53.0556","REF_FRAME":"TEME","CLASSIFICATION_TYPE":"U","SEMIMAJOR_AXIS":"6925.338","OBJECT_TYPE":"PAYLOAD","MEAN_MOTION_DOT":"0.00000432","EPOCH":"2022-07-02T19:16:27.888384","TLE_LINE2":"2 47575  53.0556 323.5487 0001397  69.3000 290.8139 15.06403528 78252","PERIAPSIS":"546.235"},{"MEAN_ANOMALY":"304.7535","TLE_LINE1":"1 47576U 21009AE  22183.76994400 -.00000121  00000-0  10807-4 0  9991","ARG_OF_PERICENTER":"55.3591","MEAN_MOTION_DDOT":"0.0000000000000","APOAPSIS":"548.249","MEAN_MOTION":"15.06392399","MEAN_ELEMENT_THEORY":"SGP4","LAUNCH_DATE":"2021-02-04","REV_AT_EPOCH":"7882","FILE":"3506730","RA_OF_ASC_NODE":"283.6977","ECCENTRICITY":"0.00014610","ELEMENT_SET_NO":"999","CENTER_NAME":"EARTH","NORAD_CAT_ID":"47576","OBJECT_NAME":"STARLINK-1978","RCS_SIZE":"LARGE","BSTAR":"0.00001080700000","COUNTRY_CODE":"US","GP_ID":"207272275","PERIOD":"95.593","OBJECT_ID":"2021-009AE","EPHEMERIS_TYPE":"0","SITE":"AFETR","TIME_SYSTEM":"UTC","DECAY_DATE":null,"INCLINATION":"53.0565","CLASSIFICATION_TYPE":"U","REF_FRAME":"TEME","SEMIMAJOR_AXIS":"6925.372","OBJECT_TYPE":"PAYLOAD","MEAN_MOTION_DOT":"-0.00000121","EPOCH":"2022-07-02T18:28:43.161600","TLE_LINE2":"2 47576  53.0565 283.6977 0001461  55.3591 304.7535 15.06392399 78826","PERIAPSIS":"546.225"},{"PERIOD":"95.592","COUNTRY_CODE":"US","GP_ID":"207272605","OBJECT_ID":"2021-009AF","EPHEMERIS_TYPE":"0","TIME_SYSTEM":"UTC","SITE":"AFETR","INCLINATION":"53.0557","DECAY_DATE":null,"CLASSIFICATION_TYPE":"U","REF_FRAME":"TEME","SEMIMAJOR_AXIS":"6925.348","OBJECT_TYPE":"PAYLOAD","PERIAPSIS":"546.137","MEAN_MOTION_DOT":"-0.00000668","EPOCH":"2022-07-02T19:27:45.130464","TLE_LINE2":"2 47577  53.0557 298.5089 0001554  71.7792 288.3366 15.06400214 78617","ARG_OF_PERICENTER":"71.7792","MEAN_ANOMALY":"288.3366","TLE_LINE1":"1 47577U 21009AF  22183.81093901 -.00000668  00000-0 -25965-4 0  9992","APOAPSIS":"548.289","MEAN_MOTION_DDOT":"0.0000000000000","MEAN_ELEMENT_THEORY":"SGP4","LAUNCH_DATE":"2021-02-04","MEAN_MOTION":"15.06400214","ELEMENT_SET_NO":"999","ECCENTRICITY":"0.00015540","CENTER_NAME":"EARTH","REV_AT_EPOCH":"7861","FILE":"3506730","RA_OF_ASC_NODE":"298.5089","RCS_SIZE":"LARGE","OBJECT_NAME":"STARLINK-1979","NORAD_CAT_ID":"47577","BSTAR":"-0.00002596500000"},{"INCLINATION":"53.0571","DECAY_DATE":null,"SEMIMAJOR_AXIS":"6925.367","CLASSIFICATION_TYPE":"U","REF_FRAME":"TEME","OBJECT_TYPE":"PAYLOAD","PERIAPSIS":"546.178","TLE_LINE2":"2 47578  53.0571 303.8366 0001521  69.6680 290.4473 15.06394083 78527","EPOCH":"2022-07-02T17:43:35.225760","MEAN_MOTION_DOT":"0.00000226","PERIOD":"95.593","COUNTRY_CODE":"US","GP_ID":"207272608","OBJECT_ID":"2021-009AG","EPHEMERIS_TYPE":"0","TIME_SYSTEM":"UTC","SITE":"AFETR","ECCENTRICITY":"0.00015210","ELEMENT_SET_NO":"999","CENTER_NAME":"EARTH","FILE":"3506730","REV_AT_EPOCH":"7852","RA_OF_ASC_NODE":"303.8366","RCS_SIZE":"LARGE","OBJECT_NAME":"STARLINK-1980","NORAD_CAT_ID":"47578","BSTAR":"0.00003410300000","ARG_OF_PERICENTER":"69.6680","TLE_LINE1":"1 47578U 21009AG  22183.73860215  .00000226  00000-0  34103-4 0  9996","MEAN_ANOMALY":"290.4473","APOAPSIS":"548.285","MEAN_MOTION_DDOT":"0.0000000000000","LAUNCH_DATE":"2021-02-04","MEAN_ELEMENT_THEORY":"SGP4","MEAN_MOTION":"15.06394083"},{"SITE":"AFETR","TIME_SYSTEM":"UTC","EPHEMERIS_TYPE":"0","OBJECT_ID":"2021-009AH","GP_ID":"207272600","COUNTRY_CODE":"US","PERIOD":"95.592","TLE_LINE2":"2 47579  53.0554 294.5156 0001696  57.5503 302.5650 15.06398082 78643","MEAN_MOTION_DOT":"0.00000241","EPOCH":"2022-07-02T14:07:18.397632","PERIAPSIS":"546.045","OBJECT_TYPE":"PAYLOAD","SEMIMAJOR_AXIS":"6925.354","REF_FRAME":"TEME","CLASSIFICATION_TYPE":"U","DECAY_DATE":null,"INCLINATION":"53.0554","MEAN_MOTION":"15.06398082","LAUNCH_DATE":"2021-02-04","MEAN_ELEMENT_THEORY":"SGP4","MEAN_MOTION_DDOT":"0.0000000000000","APOAPSIS":"548.394","TLE_LINE1":"1 47579U 21009AH  22183.58840738  .00000241  00000-0  35060-4 0  9998","MEAN_ANOMALY":"302.5650","ARG_OF_PERICENTER":"57.5503","BSTAR":"0.00003506000000","OBJECT_NAME":"STARLINK-1981","NORAD_CAT_ID":"47579","RCS_SIZE":"LARGE","RA_OF_ASC_NODE":"294.5156","FILE":"3506730","REV_AT_EPOCH":"7864","ELEMENT_SET_NO":"999","CENTER_NAME":"EARTH","ECCENTRICITY":"0.00016960"},{"GP_ID":"207272597","COUNTRY_CODE":"US","PERIOD":"95.592","SITE":"AFETR","TIME_SYSTEM":"UTC","OBJECT_ID":"2021-009AJ","EPHEMERIS_TYPE":"0","SEMIMAJOR_AXIS":"6925.326","CLASSIFICATION_TYPE":"U","REF_FRAME":"TEME","DECAY_DATE":null,"INCLINATION":"53.0541","TLE_LINE2":"2 47580  53.0541 304.4210 0001440  62.2373 297.8761 15.06407337 78506","MEAN_MOTION_DOT":"0.00000774","EPOCH":"2022-07-02T14:37:47.879616","PERIAPSIS":"546.194","OBJECT_TYPE":"PAYLOAD","TLE_LINE1":"1 47580U 21009AJ  22183.60958194  .00000774  00000-0  70869-4 0  9996","MEAN_ANOMALY":"297.8761","ARG_OF_PERICENTER":"62.2373","MEAN_MOTION":"15.06407337","MEAN_ELEMENT_THEORY":"SGP4","LAUNCH_DATE":"2021-02-04","MEAN_MOTION_DDOT":"0.0000000000000","APOAPSIS":"548.188","OBJECT_NAME":"STARLINK-1982","NORAD_CAT_ID":"47580","RCS_SIZE":"LARGE","RA_OF_ASC_NODE":"304.4210","FILE":"3506730","REV_AT_EPOCH":"7850","ECCENTRICITY":"0.00014400","ELEMENT_SET_NO":"999","CENTER_NAME":"EARTH","BSTAR":"0.00007086900000"},{"APOAPSIS":"548.422","MEAN_MOTION_DDOT":"0.0000000000000","MEAN_MOTION":"15.06393946","MEAN_ELEMENT_THEORY":"SGP4","LAUNCH_DATE":"2021-02-04","TLE_LINE1":"1 47581U 21009AK  22183.52298180  .00000487  00000-0  51609-4 0  9992","MEAN_ANOMALY":"304.4735","ARG_OF_PERICENTER":"55.6416","BSTAR":"0.00005160900000","FILE":"3506647","RA_OF_ASC_NODE":"284.8050","REV_AT_EPOCH":"7817","CENTER_NAME":"EARTH","ELEMENT_SET_NO":"999","ECCENTRICITY":"0.00017180","NORAD_CAT_ID":"47581","OBJECT_NAME":"STARLINK-1984","RCS_SIZE":"LARGE","EPHEMERIS_TYPE":"0","OBJECT_ID":"2021-009AK","SITE":"AFETR","TIME_SYSTEM":"UTC","GP_ID":"207267676","COUNTRY_CODE":"US","PERIOD":"95.593","OBJECT_TYPE":"PAYLOAD","TLE_LINE2":"2 47581  53.0547 284.8050 0001718  55.6416 304.4735 15.06393946 78177","EPOCH":"2022-07-02T12:33:05.627520","MEAN_MOTION_DOT":"0.00000487","PERIAPSIS":"546.042","DECAY_DATE":null,"INCLINATION":"53.0547","SEMIMAJOR_AXIS":"6925.367","CLASSIFICATION_TYPE":"U","REF_FRAME":"TEME"}];
